IRIDIUM 106             
1 41917U 17003A   23267.59174302  .00000326  00000+0  10937-3 0  9997
2 41917  86.3999 145.0488 0001912  78.9511 281.1899 14.34216493350364
IRIDIUM 103             
1 41918U 17003B   23267.78836354  .00000285  00000+0  94830-4 0  9990
2 41918  86.3998 144.8696 0002306  77.4468 282.6986 14.34215784350427
IRIDIUM 109             
1 41919U 17003C   23267.72493549  .00000208  00000+0  67251-4 0  9992
2 41919  86.4000 144.9387 0002216  87.2505 272.8944 14.34212126350390
IRIDIUM 102             
1 41920U 17003D   23267.55368670  .00000147  00000+0  45487-4 0  9990
2 41920  86.3999 144.9553 0002152  84.9621 275.1820 14.34216631350434
IRIDIUM 105             
1 41921U 17003E   23267.59417951  .00000341  00000+0  11462-3 0  9993
2 41921  86.3933 113.3663 0002103  84.3957 275.7479 14.34221123352291
IRIDIUM 104             
1 41922U 17003F   23267.21753029  .00000311  00000+0  10405-3 0  9995
2 41922  86.4001 145.1232 0002205  80.4795 279.6650 14.34216339350378
IRIDIUM 114             
1 41923U 17003G   23267.71224736  .00000413  00000+0  14035-3 0  9995
2 41923  86.4001 144.9034 0001767  84.3410 275.7987 14.34216425350449
IRIDIUM 108             
1 41924U 17003H   23267.67076553  .00000615  00000+0  21247-3 0  9990
2 41924  86.3928 113.2757 0001959  80.8559 279.2858 14.34215448352291
